[{"OBJECT_NAME":"ONEWEB-0634","OBJECT_ID":"2023-043AF","EPOCH":"2026-03-09T23:17:00.385440","MEAN_MOTION":13.15547737,"ECCENTRICITY":0.00018498,"INCLINATION":87.8937,"RA_OF_ASC_NODE":279.0418,"ARG_OF_PERICENTER":81.7041,"MEAN_ANOMALY":278.4299,"EPHEMERIS_TYPE":0,"CLASSIFICATION_TYPE":"U","NORAD_CAT_ID":56075,"ELEMENT_SET_NO":999,"REV_AT_EPOCH":14335,"BSTAR":0.00013013715,"MEAN_MOTION_DOT":6.2e-7,"MEAN_MOTION_DDOT":0},{"OBJECT_NAME":"DELTA 1 DEB","OBJECT_ID":"1978-026GA","EPOCH":"2026-03-09T07:19:12.012960","MEAN_MOTION":13.58495127,"ECCENTRICITY":0.02549298,"INCLINATION":98.8339,"RA_OF_ASC_NODE":357.6984,"ARG_OF_PERICENTER":315.3219,"MEAN_ANOMALY":197.8202,"EPHEMERIS_TYPE":0,"CLASSIFICATION_TYPE":"U","NORAD_CAT_ID":14460,"ELEMENT_SET_NO":999,"REV_AT_EPOCH":12451,"BSTAR":0.00032296298,"MEAN_MOTION_DOT":2.51e-6,"MEAN_MOTION_DDOT":0}]
